{"version": 0.6, "generator": "Overpass API 0.7.62.8 e802775f", "osm3s": {"timestamp_osm_base": "2025-09-10T22:40:30Z", "copyright": "The data included in this document is from www.openstreetmap.org. The data is made available under ODbL."}, "elements": [{"type": "node", "id": 1544094620, "lat": -32.951464, "lon": -60.671927, "tags": {"addr:city": "Rosario", "addr:housenumber": "3370", "addr:postcode": "2000", "addr:street": "Avenida Carlos Pellegrini", "amenity": "fuel", "brand": "Shell", "brand:wikidata": "Q110716465", "check_date": "2025-08-21", "compressed_air": "yes", "fuel:diesel": "yes", "fuel:octane_95": "yes", "fuel:octane_98": "yes", "name": "Shell", "opening_hours": "Mo-Su,PH 00:00-24:00", "operator": "OPERADORA DE COMBUSTIBLES ROSARIO SA"}}, {"type": "node", "id": 1654605977, "lat": -32.9439878, "lon": -60.6537369}, {"type": "node", "id": 1981779005, "lat": -32.9553811, "lon": -60.6492871}, {"type": "node", "id": 1981779034, "lat": -32.9553329, "lon": -60.6492763}, {"type": "node", "id": 1981779066, "lat": -32.9553935, "lon": -60.6492087}, {"type": "node", "id": 1981779088, "lat": -32.9553207, "lon": -60.6493541}, {"type": "node", "id": 1981779100, "lat": -32.9556205, "lon": -60.6494212}, {"type": "node", "id": 1981779105, "lat": -32.9568306, "lon": -60.6412002}, {"type": "node", "id": 1981779128, "lat": -32.9569822, "lon": -60.6408843}, {"type": "node", "id": 1981779161, "lat": -32.9569277, "lon": -60.6412225}, {"type": "node", "id": 1981779167, "lat": -32.95704, "lon": -60.6413233}, {"type": "node", "id": 1981779178, "lat": -32.9568189, "lon": -60.6412727}, {"type": "node", "id": 1988643483, "lat": -32.9403854, "lon": -60.6655418, "tags": {"amenity": "fuel", "brand": "Shell", "brand:wikidata": "Q110716465", "fuel:cng": "yes", "fuel:diesel": "yes", "fuel:octane_95": "yes", "fuel:octane_98": "yes", "name": "Shell", "operator": "AZUL COMBUSTIBLES SA"}}, {"type": "node", "id": 1989252093, "lat": -32.9512994, "lon": -60.6682177}, {"type": "node", "id": 1989252094, "lat": -32.9515949, "lon": -60.6686248}, {"type": "node", "id": 1989252095, "lat": -32.9512407, "lon": -60.6685304}, {"type": "node", "id": 1992208751, "lat": -32.9554775, "lon": -60.6503267}, {"type": "node", "id": 1992208783, "lat": -32.9552311, "lon": -60.6504338}, {"type": "node", "id": 1992208796, "lat": -32.9552607, "lon": -60.6502707}, {"type": "node", "id": 1992310130, "lat": -32.9503564, "lon": -60.6554418}, {"type": "node", "id": 1992310138, "lat": -32.9504755, "lon": -60.6553097}, {"type": "node", "id": 1992310147, "lat": -32.9500646, "lon": -60.6553659}, {"type": "node", "id": 1992310148, "lat": -32.950447, "lon": -60.6554654}, {"type": "node", "id": 1992310152, "lat": -32.9501063, "lon": -60.6551383}, {"type": "node", "id": 1992310156, "lat": -32.9505073, "lon": -60.655318}, {"type": "node", "id": 1992310162, "lat": -32.9505205, "lon": -60.655246}, {"type": "node", "id": 2565580970, "lat": -32.9571539, "lon": -60.6407488}, {"type": "node", "id": 2565580971, "lat": -32.9569346, "lon": -60.6406891}, {"type": "node", "id": 2565580973, "lat": -32.9569557, "lon": -60.6405793}, {"type": "node", "id": 2659815278, "lat": -32.9607285, "lon": -60.6400629}, {"type": "node", "id": 2659815280, "lat": -32.9607437, "lon": -60.6399776}, {"type": "node", "id": 2659815287, "lat": -32.9609317, "lon": -60.6401145}, {"type": "node", "id": 2659815289, "lat": -32.9609469, "lon": -60.6400292}, {"type": "node", "id": 2813483999, "lat": -32.9464108, "lon": -60.6581518}, {"type": "node", "id": 2813484905, "lat": -32.9467155, "lon": -60.6578301}, {"type": "node", "id": 2813484906, "lat": -32.9466477, "lon": -60.6582116}, {"type": "node", "id": 2813484907, "lat": -32.9466759, "lon": -60.6580532}, {"type": "node", "id": 2820972977, "lat": -32.9523806, "lon": -60.6673922}, {"type": "node", "id": 3010872173, "lat": -32.9390096, "lon": -60.6788675, "tags": {"addr:city": "Rosario", "addr:country": "AR", "addr:state": "Santa Fe", "addr:street": "Bulevar Nicol\u00e1s Avellaneda", "amenity": "fuel", "brand": "YPF", "brand:wikidata": "Q2006989", "brand:wikipedia": "es:YPF", "fuel:cng": "yes", "fuel:diesel": "yes", "fuel:octane_95": "yes", "fuel:octane_98": "yes", "name": "YPF", "operator": "E/S AVELLANEDA DE A ROMAIRONE", "wheelchair": "yes"}}, {"type": "node", "id": 3219616316, "lat": -32.941931, "lon": -60.6612642}, {"type": "node", "id": 3219616319, "lat": -32.9419755, "lon": -60.6609884}, {"type": "node", "id": 3219616320, "lat": -32.9419876, "lon": -60.6609133}, {"type": "node", "id": 3219616321, "lat": -32.9420047, "lon": -60.661281}, {"type": "node", "id": 3219616326, "lat": -32.942144, "lon": -60.6613129}, {"type": "node", "id": 3219616330, "lat": -32.9422398, "lon": -60.661049}, {"type": "node", "id": 3219616331, "lat": -32.9422519, "lon": -60.6609739}, {"type": "node", "id": 3230749366, "lat": -32.9354337, "lon": -60.6581155, "tags": {"addr:city": "Rosario", "addr:country": "AR", "addr:postcode": "2000", "addr:state": "Santa Fe", "amenity": "fuel", "brand": "YPF", "brand:wikidata": "Q2006989", "brand:wikipedia": "es:YPF", "fuel:diesel": "yes", "fuel:octane_95": "yes", "fuel:octane_98": "yes", "name": "YPF", "operator": "ESTACION DE SERVICIO GENERAL MOSCONI"}}, {"type": "node", "id": 3358302797, "lat": -32.9516599, "lon": -60.6682786}, {"type": "node", "id": 3496246175, "lat": -32.9343049, "lon": -60.6521871, "tags": {"addr:city": "Rosario", "addr:country": "AR", "addr:state": "Santa Fe", "addr:street": "Alvear", "amenity": "fuel", "brand": "OYRSA", "check_date": "2025-01-31", "fuel:cng": "yes"}}, {"type": "node", "id": 3496246182, "lat": -32.9545307, "lon": -60.6413724}, {"type": "node", "id": 3622591563, "lat": -32.9554478, "lon": -60.6504898}, {"type": "node", "id": 3801339107, "lat": -32.946211, "lon": -60.6469617}, {"type": "node", "id": 3865311914, "lat": -32.9422035, "lon": -60.6612829}, {"type": "node", "id": 3867207154, "lat": -32.9427291, "lon": -60.6391383}, {"type": "node", "id": 3867207155, "lat": -32.9427848, "lon": -60.6388295}, {"type": "node", "id": 3867207557, "lat": -32.9427162, "lon": -60.6392116}, {"type": "node", "id": 3867314180, "lat": -32.9427933, "lon": -60.6387806}, {"type": "node", "id": 3867314185, "lat": -32.942932, "lon": -60.6392664}, {"type": "node", "id": 3867314187, "lat": -32.9429508, "lon": -60.63916}, {"type": "node", "id": 3867314188, "lat": -32.9429514, "lon": -60.6388207}, {"type": "node", "id": 3867314189, "lat": -32.9430094, "lon": -60.6388356}, {"type": "node", "id": 3867675698, "lat": -32.9513507, "lon": -60.6685597}, {"type": "node", "id": 3867675701, "lat": -32.9514401, "lon": -60.6682553}, {"type": "node", "id": 3867675702, "lat": -32.9514464, "lon": -60.6682217}, {"type": "node", "id": 3867675706, "lat": -32.9515428, "lon": -60.6686109}, {"type": "node", "id": 3867675708, "lat": -32.951601, "lon": -60.6685926}, {"type": "node", "id": 3867675724, "lat": -32.9522279, "lon": -60.6676744}, {"type": "node", "id": 3867675725, "lat": -32.9522441, "lon": -60.667583}, {"type": "node", "id": 3867675726, "lat": -32.9522823, "lon": -60.6673674}, {"type": "node", "id": 3867675727, "lat": -32.9523262, "lon": -60.6676991}, {"type": "node", "id": 3982825543, "lat": -32.9412338, "lon": -60.6410089, "tags": {"amenity": "fuel", "brand": "Shell", "brand:wikidata": "Q110716465", "brand:wikipedia": "en:Royal Dutch Shell", "fuel:diesel": "yes", "fuel:octane_95": "yes", "fuel:octane_98": "yes", "name": "Shell", "operator": "AZUL COMBUSTIBLES SA"}}, {"type": "node", "id": 3982825546, "lat": -32.9521939, "lon": -60.6423295, "tags": {"amenity": "fuel", "brand": "Shell", "brand:wikidata": "Q110716465", "brand:wikipedia": "en:Royal Dutch Shell", "fuel:diesel": "yes", "fuel:octane_95": "yes", "fuel:octane_98": "yes", "name": "Shell", "operator": "AZUL COMBUSTIBLES SA", "wheelchair": "yes"}}, {"type": "node", "id": 3982876902, "lat": -32.9262516, "lon": -60.6671428, "tags": {"amenity": "fuel", "brand": "Shell", "brand:wikidata": "Q110716465", "brand:wikipedia": "en:Royal Dutch Shell", "fuel:cng": "yes", "fuel:diesel": "yes", "fuel:octane_95": "yes", "fuel:octane_98": "yes", "name": "Shell", "operator": "VETVEL SA"}}, {"type": "node", "id": 3982876914, "lat": -32.9556451, "lon": -60.649265}, {"type": "node", "id": 3982876915, "lat": -32.9571062, "lon": -60.6409127}, {"type": "node", "id": 3982876916, "lat": -32.9571749, "lon": -60.640639}, {"type": "node", "id": 4030806355, "lat": -32.9440188, "lon": -60.6535609}, {"type": "node", "id": 4030806357, "lat": -32.9440388, "lon": -60.6537496}, {"type": "node", "id": 4030806358, "lat": -32.9439988, "lon": -60.6539771}, {"type": "node", "id": 4030806359, "lat": -32.9437073, "lon": -60.6539042}, {"type": "node", "id": 4030806360, "lat": -32.9437783, "lon": -60.6535008}, {"type": "node", "id": 5359958272, "lat": -32.9463719, "lon": -60.6469992}, {"type": "node", "id": 5359958273, "lat": -32.9463458, "lon": -60.6471585}, {"type": "node", "id": 5359958274, "lat": -32.9461848, "lon": -60.6471209}, {"type": "node", "id": 11132866673, "lat": -32.946339, "lon": -60.6581335}, {"type": "node", "id": 11132866677, "lat": -32.9463501, "lon": -60.6580721}, {"type": "node", "id": 11132866678, "lat": -32.9464071, "lon": -60.6577527}, {"type": "node", "id": 11132866692, "lat": -32.9463965, "lon": -60.6578123}, {"type": "node", "id": 11179634457, "lat": -32.9547491, "lon": -60.6413736}, {"type": "node", "id": 11179634458, "lat": -32.9545625, "lon": -60.6413073}, {"type": "node", "id": 11179634459, "lat": -32.9544996, "lon": -60.6415589}, {"type": "node", "id": 11179634460, "lat": -32.954708, "lon": -60.6416082}, {"type": "node", "id": 11179634461, "lat": -32.9545425, "lon": -60.6413022}, {"type": "node", "id": 11179634475, "lat": -32.9547534, "lon": -60.6413572}, {"type": "node", "id": 11179634516, "lat": -32.9545027, "lon": -60.6415404}, {"type": "node", "id": 11237212492, "lat": -32.9504029, "lon": -60.6552154}, {"type": "node", "id": 11237212493, "lat": -32.9503058, "lon": -60.6554287}, {"type": "node", "id": 11237212494, "lat": -32.9502203, "lon": -60.6554064}, {"type": "node", "id": 11237212495, "lat": -32.950262, "lon": -60.6551788}, {"type": "node", "id": 11237212496, "lat": -32.9502154, "lon": -60.6551666}, {"type": "node", "id": 11237212497, "lat": -32.9501737, "lon": -60.6553943}, {"type": "node", "id": 11777217386, "lat": -32.9420235, "lon": -60.6609215}, {"type": "node", "id": 11777217406, "lat": -32.9419817, "lon": -60.6609497}, {"type": "node", "id": 11777217409, "lat": -32.9419839, "lon": -60.6609365}, {"type": "node", "id": 12587578591, "lat": -32.9665668, "lon": -60.6474409, "tags": {"addr:city": "Rosario", "addr:country": "AR", "addr:state": "Santa Fe", "addr:street": "Bulevar 27 de Febrero", "amenity": "fuel", "brand": "Shell", "brand:wikidata": "Q110716465", "brand:wikipedia": "en:Royal Dutch Shell", "check_date": "2025-02-12", "fuel:cng": "yes", "fuel:diesel": "yes", "fuel:octane_95": "yes", "fuel:octane_98": "yes", "name": "Shell", "operator": "GNC Rosario S.A."}}, {"type": "node", "id": 12962316101, "lat": -32.9434759, "lon": -60.6458624, "tags": {"addr:city": "Rosario", "addr:country": "AR", "addr:state": "Santa Fe", "addr:street": "Santa Fe", "amenity": "fuel", "brand": "YPF", "brand:wikidata": "Q2006989", "brand:wikipedia": "es:YPF", "check_date": "2025-06-23", "fuel:cng": "yes", "fuel:diesel": "yes", "fuel:octane_95": "yes", "fuel:octane_98": "yes", "name": "YPF", "operator": "OPESSA ESPA\u00d1A"}}, {"type": "way", "id": 187503812, "nodes": [1981779100, 3982876914, 1981779066, 1981779005, 1981779034, 1981779088, 1981779100], "tags": {"addr:city": "Rosario", "addr:country": "AR", "addr:state": "Santa Fe", "addr:street": "Avenida Carlos Pellegrini", "amenity": "fuel", "brand": "Shell", "brand:wikidata": "Q110716465", "brand:wikipedia": "en:Royal Dutch Shell", "building": "roof", "fuel:diesel": "yes", "fuel:octane_95": "yes", "fuel:octane_98": "yes", "name": "Shell", "operator": "DELMATT S.A."}}, {"type": "way", "id": 187503816, "nodes": [1981779178, 1981779167, 3982876915, 1981779128, 1981779161, 1981779105, 1981779178], "tags": {"addr:city": "Rosario", "addr:country": "AR", "addr:state": "Santa Fe", "addr:street": "Avenida Carlos Pellegrini", "amenity": "fuel", "brand": "Puma", "brand:wikidata": "Q7259769", "building": "roof", "disused:brand": "Petrobras", "fuel:cng": "yes", "name": "Puma Energy", "old_name": "Petrobras", "operator": "INDISA S.A."}}, {"type": "way", "id": 188301448, "nodes": [1989252095, 3867675698, 3867675706, 1989252094, 3867675708, 3358302797, 3867675702, 3867675701, 1989252093, 1989252095], "tags": {"addr:city": "Rosario", "addr:country": "AR", "addr:housenumber": "1620", "addr:postcode": "S2002", "addr:state": "Santa Fe", "addr:street": "Avenida Francia", "amenity": "fuel", "brand": "YPF", "brand:wikidata": "Q2006989", "disused:brand": "Petrobras", "fuel:cng": "yes", "fuel:diesel": "yes", "fuel:octane_95": "yes", "fuel:octane_98": "yes", "name": "YPF", "old_name": "Petrobras", "operator": "MONFRAN S.R.L.", "self_service": "no"}}, {"type": "way", "id": 188596803, "nodes": [1992208783, 1992208796, 1992208751, 3622591563, 1992208783], "tags": {"addr:city": "Rosario", "addr:country": "AR", "addr:state": "Santa Fe", "addr:street": "Avenida Carlos Pellegrini", "amenity": "fuel", "brand": "Bandera Blanca", "building": "roof", "fuel:cng": "yes", "name": "Blue"}}, {"type": "way", "id": 188608872, "nodes": [1992310162, 11237212492, 11237212495, 11237212496, 1992310152, 1992310147, 11237212497, 11237212494, 11237212493, 1992310130, 1992310148, 1992310138, 1992310156, 1992310162], "tags": {"alt_name": "YPF ACA", "amenity": "fuel", "brand": "YPF", "brand:wikidata": "Q2006989", "brand:wikipedia": "es:YPF", "check_date": "2025-06-05", "check_date:compressed_air": "2025-06-05", "compressed_air": "yes", "fuel:diesel": "yes", "fuel:octane_95": "yes", "fuel:octane_98": "yes", "name": "ACA", "operator": "OPESSA ACA ORO\u00d1O"}}, {"type": "way", "id": 250035112, "nodes": [2565580970, 2565580971, 2565580973, 3982876916, 2565580970], "tags": {"addr:city": "Rosario", "addr:country": "AR", "addr:state": "Santa Fe", "addr:street": "Avenida Carlos Pellegrini", "amenity": "fuel", "brand": "Puma", "brand:wikidata": "Q7259769", "building": "roof", "disused:brand": "Petrobras", "fuel:diesel": "yes", "fuel:octane_95": "yes", "fuel:octane_98": "yes", "name": "Puma Energy", "old_name": "Petrobras", "operator": "Eg3 RED S.A. (ROSARIO III)"}}, {"type": "way", "id": 260492370, "nodes": [2659815280, 2659815278, 2659815287, 2659815289, 2659815280], "tags": {"addr:city": "Rosario", "addr:country": "AR", "addr:state": "Santa Fe", "addr:street": "Jos\u00e9 de San Mart\u00edn", "amenity": "fuel", "brand": "Axion", "brand:wikidata": "Q62131749", "building": "roof", "fuel:cng": "yes", "fuel:diesel": "yes", "fuel:octane_95": "yes", "fuel:octane_98": "yes", "layer": "1", "name": "Axion", "operator": "Servicentro 20 de Junio - 164048"}}, {"type": "way", "id": 315829733, "nodes": [3219616331, 3219616330, 3865311914, 3219616326, 3219616321, 3219616316, 3219616319, 11777217406, 11777217409, 3219616320, 11777217386, 3219616331], "tags": {"amenity": "fuel", "brand": "Axion", "brand:wikidata": "Q62131749", "check_date": "2025-02-16", "fuel:cng": "yes", "fuel:diesel": "yes", "fuel:octane_95": "yes", "fuel:octane_98": "yes", "name": "Axion", "operator": "Servicentro Ovidio Lagos - 158730"}}, {"type": "way", "id": 383459941, "nodes": [3867314187, 3867314185, 3867207557, 3867207154, 3867207155, 3867314180, 3867314188, 3867314189, 3867314187], "tags": {"addr:city": "Rosario", "addr:country": "AR", "addr:postcode": "2000", "addr:state": "Santa Fe", "addr:street": "Justo Jos\u00e9 de Urquiza", "amenity": "fuel", "brand": "YPF", "brand:wikidata": "Q2006989", "brand:wikipedia": "es:YPF", "fuel:cng": "yes", "fuel:diesel": "yes", "fuel:octane_95": "yes", "fuel:octane_98": "yes", "name": "YPF", "operator": "OPESSA ROSARIO URQUIZA"}}, {"type": "way", "id": 383487751, "nodes": [2820972977, 3867675727, 3867675724, 3867675725, 3867675726, 2820972977], "tags": {"addr:city": "Rosario", "addr:country": "AR", "addr:housenumber": "3044", "addr:postcode": "S2002", "addr:state": "Santa Fe", "addr:street": "Avenida Carlos Pellegrini", "amenity": "fuel", "brand": "Bandera Blanca", "building": "yes", "fuel:cng": "yes", "operator": "Pellegrini Servicios SRL", "shop": "yes"}}, {"type": "way", "id": 400530722, "nodes": [4030806355, 1654605977, 4030806357, 4030806358, 4030806359, 4030806360, 4030806355], "tags": {"addr:city": "Rosario", "addr:country": "AR", "addr:housenumber": "2201", "addr:postcode": "2000", "addr:state": "Santa Fe", "addr:street": "C\u00f3rdoba", "amenity": "fuel", "brand": "Shell", "brand:wikidata": "Q110716465", "brand:wikipedia": "en:Royal Dutch Shell", "building": "roof", "fuel:cng": "no", "fuel:diesel": "yes", "fuel:octane_95": "yes", "fuel:octane_98": "yes", "name": "Shell", "operator": "AZUL COMBUSTIBLES SA"}}, {"type": "way", "id": 555573841, "nodes": [5359958274, 3801339107, 5359958272, 5359958273, 5359958274], "tags": {"addr:city": "Rosario", "addr:country": "AR", "addr:housenumber": "1701", "addr:postcode": "2000", "addr:state": "Santa Fe", "addr:street": "Rioja", "amenity": "fuel", "brand": "YPF", "brand:wikidata": "Q2006989", "brand:wikipedia": "es:YPF", "building": "roof", "disused:brand": "Petrobras", "fuel:diesel": "yes", "fuel:octane_95": "yes", "fuel:octane_98": "yes", "name": "YPF", "old_name": "Petrobras", "operator": "DEVENTER S.A. EN FORMACION"}}, {"type": "way", "id": 1200690665, "nodes": [11132866673, 11132866677, 11132866692, 11132866678, 2813484905, 2813484907, 2813484906, 2813483999, 11132866673], "tags": {"amenity": "fuel", "brand": "Puma", "brand:wikidata": "Q7259769", "disused:brand": "Petrobras", "fuel:diesel": "yes", "fuel:diesel_G2": "yes", "fuel:octane_95": "yes", "fuel:octane_98": "yes", "name": "Puma Energy", "old_name": "Petrobras", "operator": "Conquer S.A."}}, {"type": "way", "id": 1206490464, "nodes": [11179634475, 11179634458, 11179634461, 3496246182, 11179634516, 11179634459, 11179634460, 11179634457, 11179634475], "tags": {"addr:street": "Zeballos", "amenity": "fuel", "brand": "Bandera Blanca", "fuel:cng": "yes", "fuel:diesel": "no", "fuel:diesel_G2": "no", "fuel:octane_95": "no", "fuel:octane_98": "no", "name": "GNC Zeballos"}}]}